{
    "links": {
        "self": "http://www.neowsapp.com/rest/v1/neo/3754553?api_key=iIulBulltgU6a56xZRHN4H3l9WmuAYTsLGpBGhQ2"
    },
    "id": "3754553",
    "neo_reference_id": "3754553",
    "name": "(2004 RH357)",
    "designation": "2004 RH357",
    "nasa_jpl_url": "http://ssd.jpl.nasa.gov/sbdb.cgi?sstr=3754553",
    "absolute_magnitude_h": 23.3,
    "estimated_diameter": {
        "kilometers": {
            "estimated_diameter_min": 0.058150704,
            "estimated_diameter_max": 0.130028927
        },
        "meters": {
            "estimated_diameter_min": 58.1507039646,
            "estimated_diameter_max": 130.0289270043
        },
        "miles": {
            "estimated_diameter_min": 0.0361331611,
            "estimated_diameter_max": 0.0807962044
        },
        "feet": {
            "estimated_diameter_min": 190.7831555951,
            "estimated_diameter_max": 426.6041048727
        }
    },
    "is_potentially_hazardous_asteroid": false,
    "close_approach_data": [
        {
            "close_approach_date": "2003-02-26",
            "close_approach_date_full": "2003-Feb-26 11:09",
            "epoch_date_close_approach": 1046257740000,
            "relative_velocity": {
                "kilometers_per_second": "21.6237071841",
                "kilometers_per_hour": "77845.3458629047",
                "miles_per_hour": "48370.0706002032"
            },
            "miss_distance": {
                "astronomical": "0.3966614988",
                "lunar": "154.3013230332",
                "kilometers": "59339715.331487556",
                "miles": "36871989.3301220328"
            },
            "orbiting_body": "Earth"
        },
        {
            "close_approach_date": "2004-10-13",
            "close_approach_date_full": "2004-Oct-13 13:05",
            "epoch_date_close_approach": 1097672700000,
            "relative_velocity": {
                "kilometers_per_second": "9.7471670384",
                "kilometers_per_hour": "35089.8013381784",
                "miles_per_hour": "21803.4379481587"
            },
            "miss_distance": {
                "astronomical": "0.0158975702",
                "lunar": "6.1841548078",
                "kilometers": "2378242.640095474",
                "miles": "1477771.4513825812"
            },
            "orbiting_body": "Earth"
        },
        {
            "close_approach_date": "2005-03-05",
            "close_approach_date_full": "2005-Mar-05 02:25",
            "epoch_date_close_approach": 1109989500000,
            "relative_velocity": {
                "kilometers_per_second": "5.6120920875",
                "kilometers_per_hour": "20203.5315151505",
                "miles_per_hour": "12553.6887906223"
            },
            "miss_distance": {
                "astronomical": "0.4829515572",
                "lunar": "187.8681557508",
                "kilometers": "72248524.270303164",
                "miles": "44893151.2584811032"
            },
            "orbiting_body": "Earth"
        },
        {
            "close_approach_date": "2086-11-23",
            "close_approach_date_full": "2086-Nov-23 03:41",
            "epoch_date_close_approach": 3688861260000,
            "relative_velocity": {
                "kilometers_per_second": "7.8987521687",
                "kilometers_per_hour": "28435.5078072379",
                "miles_per_hour": "17668.718726114"
            },
            "miss_distance": {
                "astronomical": "0.1187509764",
                "lunar": "46.1941298196",
                "kilometers": "17764893.129860268",
                "miles": "11038592.7245489784"
            },
            "orbiting_body": "Earth"
        }
    ],
    "orbital_data": {
        "orbit_id": "2",
        "orbit_determination_date": "2017-04-06 09:12:15",
        "first_observation_date": "2004-09-11",
        "last_observation_date": "2004-09-21",
        "data_arc_in_days": 10,
        "observations_used": 9,
        "orbit_uncertainty": "8",
        "minimum_orbit_intersection": ".0159057",
        "jupiter_tisserand_invariant": "4.407",
        "epoch_osculation": "2453265.5",
        "eccentricity": ".4287227796263148",
        "semi_major_axis": "1.515725544233935",
        "inclination": "2.675599555309637",
        "ascending_node_longitude": ".749427807379895",
        "orbital_period": "681.5995287665155",
        "perihelion_distance": ".8658994757593538",
        "perihelion_argument": "76.1307681610464",
        "aphelion_distance": "2.165551612708517",
        "perihelion_time": "2453334.679355318476",
        "mean_anomaly": "323.4615828451042",
        "mean_motion": ".5281693792416329",
        "equinox": "J2000",
        "orbit_class": {
            "orbit_class_type": "APO",
            "orbit_class_description": "Near-Earth asteroid orbits which cross the Earth’s orbit similar to that of 1862 Apollo",
            "orbit_class_range": "a (semi-major axis) > 1.0 AU; q (perihelion) < 1.017 AU"
        }
    },
    "is_sentry_object": false
}